{
  "type": "FeatureCollection",
  "features": [
    {
      "type": "Feature",
      "properties": {
        "norad_id": 32356,
        "name": "FENGYUN 1C DEB",
        "group": "fengyun-1c-debris",
        "lat": 39.238144378733665,
        "lon": 60.21970953561344,
        "alt_km": 964.6780581983121,
        "timestamp": "2025-12-27T22:26:48.889151+00:00",
        "meta_object_name": "FENGYUN 1C DEB",
        "meta_object_id": "1999-025CYZ",
        "meta_epoch": "2025-12-26T11:34:03.942048",
        "meta_mean_motion": 14.03483044,
        "meta_eccentricity": 0.0126308,
        "meta_inclination": 102.4963,
        "meta_ra_of_asc_node": 227.7957,
        "meta_arg_of_pericenter": 342.845,
        "meta_mean_anomaly": 16.8453,
        "meta_ephemeris_type": 0,
        "meta_classification_type": "U",
        "meta_norad_cat_id": 32356,
        "meta_element_set_no": 999,
        "meta_rev_at_epoch": 68580,
        "meta_bstar": 0.0024544,
        "meta_mean_motion_dot": 4.055e-05,
        "meta_mean_motion_ddot": 0,
        "tle_line1": "1 32356U 99025CYZ 25360.48199007  .00004055  00000+0  24544-2 0  9992",
        "tle_line2": "2 32356 102.4963 227.7957 0126308 342.8450  16.8453 14.03483044685806"
      },
      "geometry": {
        "type": "Point",
        "coordinates": [
          60.21970953561344,
          39.238144378733665
        ]
      }
    },
    {
      "type": "Feature",
      "properties": {
        "norad_id": 32357,
        "name": "FENGYUN 1C DEB",
        "group": "fengyun-1c-debris",
        "lat": -57.40435559497064,
        "lon": -154.00974640731621,
        "alt_km": 999.3704522546514,
        "timestamp": "2025-12-27T22:26:48.889165+00:00",
        "meta_object_name": "FENGYUN 1C DEB",
        "meta_object_id": "1999-025CZA",
        "meta_epoch": "2025-12-26T08:35:06.931968",
        "meta_mean_motion": 13.6882052,
        "meta_eccentricity": 0.0490398,
        "meta_inclination": 98.8545,
        "meta_ra_of_asc_node": 38.6444,
        "meta_arg_of_pericenter": 151.6055,
        "meta_mean_anomaly": 231.4761,
        "meta_ephemeris_type": 0,
        "meta_classification_type": "U",
        "meta_norad_cat_id": 32357,
        "meta_element_set_no": 999,
        "meta_rev_at_epoch": 66974,
        "meta_bstar": 0.0020975,
        "meta_mean_motion_dot": 4.182e-05,
        "meta_mean_motion_ddot": 0,
        "tle_line1": "1 32357U 99025CZA 25360.35771912  .00004182  00000+0  20975-2 0  9995",
        "tle_line2": "2 32357  98.8545  38.6444 0490398 151.6055 231.4761 13.68820520669747"
      },
      "geometry": {
        "type": "Point",
        "coordinates": [
          -154.00974640731621,
          -57.40435559497064
        ]
      }
    },
    {
      "type": "Feature",
      "properties": {
        "norad_id": 32360,
        "name": "FENGYUN 1C DEB",
        "group": "fengyun-1c-debris",
        "lat": -43.70228630435513,
        "lon": -174.7400477194389,
        "alt_km": 796.0278465521378,
        "timestamp": "2025-12-27T22:26:48.889175+00:00",
        "meta_object_name": "FENGYUN 1C DEB",
        "meta_object_id": "1999-025CZD",
        "meta_epoch": "2025-12-24T07:04:44.070528",
        "meta_mean_motion": 13.98404862,
        "meta_eccentricity": 0.02334639,
        "meta_inclination": 98.1032,
        "meta_ra_of_asc_node": 174.2135,
        "meta_arg_of_pericenter": 275.3665,
        "meta_mean_anomaly": 82.0908,
        "meta_ephemeris_type": 0,
        "meta_classification_type": "U",
        "meta_norad_cat_id": 32360,
        "meta_element_set_no": 999,
        "meta_rev_at_epoch": 64978,
        "meta_bstar": 0.0029400127,
        "meta_mean_motion_dot": 5.27e-05,
        "meta_mean_motion_ddot": 0,
        "tle_line1": "1 32360U 99025CZD 25358.29495452  .00005270  00000+0  29400-2 0  9992",
        "tle_line2": "2 32360  98.1032 174.2135 0233463 275.3665  82.0908 13.98404862649783"
      },
      "geometry": {
        "type": "Point",
        "coordinates": [
          -174.7400477194389,
          -43.70228630435513
        ]
      }
    },
    {
      "type": "Feature",
      "properties": {
        "norad_id": 32361,
        "name": "FENGYUN 1C DEB",
        "group": "fengyun-1c-debris",
        "lat": -33.28251589334977,
        "lon": 67.5540079972359,
        "alt_km": 700.238395050309,
        "timestamp": "2025-12-27T22:26:48.889185+00:00",
        "meta_object_name": "FENGYUN 1C DEB",
        "meta_object_id": "1999-025CZE",
        "meta_epoch": "2025-12-26T15:09:41.700960",
        "meta_mean_motion": 14.51241927,
        "meta_eccentricity": 0.0045316,
        "meta_inclination": 98.8582,
        "meta_ra_of_asc_node": 60.3058,
        "meta_arg_of_pericenter": 1.9938,
        "meta_mean_anomaly": 358.1427,
        "meta_ephemeris_type": 0,
        "meta_classification_type": "U",
        "meta_norad_cat_id": 32361,
        "meta_element_set_no": 999,
        "meta_rev_at_epoch": 96546,
        "meta_bstar": 0.0019516,
        "meta_mean_motion_dot": 7.818e-05,
        "meta_mean_motion_ddot": 0,
        "tle_line1": "1 32361U 99025CZE 25360.63173265  .00007818  00000+0  19516-2 0  9996",
        "tle_line2": "2 32361  98.8582  60.3058 0045316   1.9938 358.1427 14.51241927965464"
      },
      "geometry": {
        "type": "Point",
        "coordinates": [
          67.5540079972359,
          -33.28251589334977
        ]
      }
    },
    {
      "type": "Feature",
      "properties": {
        "norad_id": 32362,
        "name": "FENGYUN 1C DEB",
        "group": "fengyun-1c-debris",
        "lat": -29.763494899503513,
        "lon": -20.949948618229865,
        "alt_km": 992.6683600703682,
        "timestamp": "2025-12-27T22:26:48.889195+00:00",
        "meta_object_name": "FENGYUN 1C DEB",
        "meta_object_id": "1999-025CZF",
        "meta_epoch": "2025-12-27T05:00:26.761248",
        "meta_mean_motion": 13.65258804,
        "meta_eccentricity": 0.0272564,
        "meta_inclination": 99.8456,
        "meta_ra_of_asc_node": 332.613,
        "meta_arg_of_pericenter": 248.6302,
        "meta_mean_anomaly": 108.5556,
        "meta_ephemeris_type": 0,
        "meta_classification_type": "U",
        "meta_norad_cat_id": 32362,
        "meta_element_set_no": 999,
        "meta_rev_at_epoch": 91327,
        "meta_bstar": 0.0022651,
        "meta_mean_motion_dot": 2.324e-05,
        "meta_mean_motion_ddot": 0,
        "tle_line1": "1 32362U 99025CZF 25361.20864307  .00002324  00000+0  22651-2 0  9996",
        "tle_line2": "2 32362  99.8456 332.6130 0272564 248.6302 108.5556 13.65258804913272"
      },
      "geometry": {
        "type": "Point",
        "coordinates": [
          -20.949948618229865,
          -29.763494899503513
        ]
      }
    },
    {
      "type": "Feature",
      "properties": {
        "norad_id": 32363,
        "name": "FENGYUN 1C DEB",
        "group": "fengyun-1c-debris",
        "lat": 24.47302168700332,
        "lon": -41.58176053124711,
        "alt_km": 395.4321621806321,
        "timestamp": "2025-12-27T22:26:48.889205+00:00",
        "meta_object_name": "FENGYUN 1C DEB",
        "meta_object_id": "1999-025CZG",
        "meta_epoch": "2025-12-25T20:46:31.994976",
        "meta_mean_motion": 15.50236728,
        "meta_eccentricity": 0.00636739,
        "meta_inclination": 98.3333,
        "meta_ra_of_asc_node": 319.8511,
        "meta_arg_of_pericenter": 96.7545,
        "meta_mean_anomaly": 264.0955,
        "meta_ephemeris_type": 0,
        "meta_classification_type": "U",
        "meta_norad_cat_id": 32363,
        "meta_element_set_no": 999,
        "meta_rev_at_epoch": 97011,
        "meta_bstar": 0.001790558,
        "meta_mean_motion_dot": 0.00111181,
        "meta_mean_motion_ddot": 0,
        "tle_line1": "1 32363U 99025CZG 25359.86564809  .00111181  00000+0  17906-2 0  9999",
        "tle_line2": "2 32363  98.3333 319.8511 0063673  96.7545 264.0955 15.50236728970115"
      },
      "geometry": {
        "type": "Point",
        "coordinates": [
          -41.58176053124711,
          24.47302168700332
        ]
      }
    },
    {
      "type": "Feature",
      "properties": {
        "norad_id": 32364,
        "name": "FENGYUN 1C DEB",
        "group": "fengyun-1c-debris",
        "lat": 78.75708685920553,
        "lon": 66.99391003475209,
        "alt_km": 764.2556222625826,
        "timestamp": "2025-12-27T22:26:48.889215+00:00",
        "meta_object_name": "FENGYUN 1C DEB",
        "meta_object_id": "1999-025CZH",
        "meta_epoch": "2025-11-29T08:05:37.624992",
        "meta_mean_motion": 14.14317962,
        "meta_eccentricity": 0.01349396,
        "meta_inclination": 98.2918,
        "meta_ra_of_asc_node": 173.2369,
        "meta_arg_of_pericenter": 222.8285,
        "meta_mean_anomaly": 136.2316,
        "meta_ephemeris_type": 0,
        "meta_classification_type": "U",
        "meta_norad_cat_id": 32364,
        "meta_element_set_no": 999,
        "meta_rev_at_epoch": 63519,
        "meta_bstar": 0.0022712328,
        "meta_mean_motion_dot": 4.699e-05,
        "meta_mean_motion_ddot": 0,
        "tle_line1": "1 32364U 99025CZH 25333.33724103  .00004699  00000+0  22712-2 0  9995",
        "tle_line2": "2 32364  98.2918 173.2369 0134939 222.8285 136.2316 14.14317962635190"
      },
      "geometry": {
        "type": "Point",
        "coordinates": [
          66.99391003475209,
          78.75708685920553
        ]
      }
    }
  ]
}